0 INTELSAT 601
1 21765U 91075A   13280.85294142 -.00000091  00000-0  10000-3 0  5814
2 21765 007.9366 053.2642 0001523 144.7917 215.2541 00.99585722 80151
0 INTELSAT 601
1 21765U 91075A   13282.86115561 -.00000054  00000-0  10000-3 0  5824
2 21765 007.9405 053.2420 0001496 139.3965 220.6413 00.99585250 80177
0 INTELSAT 601
1 21765U 91075A   13286.87766196  .00000013  00000-0  10000-3 0  5830
2 21765 007.9480 053.1979 0001454 140.5485 219.4962 00.99584904 80218
0 INTELSAT 601
1 21765U 91075A   13288.88586483  .00000044  00000-0  10000-3 0  5847
2 21765 007.9532 053.1771 0001493 135.7678 224.2349 00.99584114 80237
0 INTELSAT 601
1 21765U 91075A   13289.89003724  .00000058  00000-0  10000-3 0  5857
2 21765 007.9543 053.1649 0001411 141.4907 218.5348 00.99584623 80243
0 INTELSAT 601
1 21765U 91075A   13291.89818346  .00000082  00000-0  10000-3 0  5862
2 21765 007.9581 053.1433 0001498 147.2688 212.7164 00.99584942 80269
0 INTELSAT 601
1 21765U 91075A   13292.90227817  .00000092  00000-0  10000-3 0  5874
2 21765 007.9595 053.1326 0001348 136.8770 223.1193 00.99585669 80271
0 INTELSAT 601
1 21765U 91075A   13293.90633007  .00000100  00000-0  10000-3 0  5888
2 21765 007.9616 053.1214 0001596 148.0674 211.8995 00.99585891 80286
